[{"OBJECT_NAME":"HULIANWANG DIGUI-36","OBJECT_ID":"2025-159B","EPOCH":"2026-03-09T23:27:14.066496","MEAN_MOTION":13.24420266,"ECCENTRICITY":0.00013137,"INCLINATION":86.4995,"RA_OF_ASC_NODE":316.0074,"ARG_OF_PERICENTER":74.9698,"MEAN_ANOMALY":285.1582,"EPHEMERIS_TYPE":0,"CLASSIFICATION_TYPE":"U","NORAD_CAT_ID":64957,"ELEMENT_SET_NO":999,"REV_AT_EPOCH":2999,"BSTAR":6.156279e-5,"MEAN_MOTION_DOT":4.1e-7,"MEAN_MOTION_DDOT":0},{"OBJECT_NAME":"COSMOS 1275 DEB","OBJECT_ID":"1981-053SJ","EPOCH":"2026-03-05T00:53:58.630560","MEAN_MOTION":13.4879887,"ECCENTRICITY":0.01919915,"INCLINATION":82.7672,"RA_OF_ASC_NODE":351.7447,"ARG_OF_PERICENTER":242.3783,"MEAN_ANOMALY":115.7751,"EPHEMERIS_TYPE":0,"CLASSIFICATION_TYPE":"U","NORAD_CAT_ID":42170,"ELEMENT_SET_NO":999,"REV_AT_EPOCH":57124,"BSTAR":0.0016143621,"MEAN_MOTION_DOT":1.14e-5,"MEAN_MOTION_DDOT":0}]
